[{"OBJECT_NAME":"STARLINK-5298","OBJECT_ID":"2023-010N","EPOCH":"2026-03-09T22:31:23.386368","MEAN_MOTION":14.98329657,"ECCENTRICITY":0.00029178,"INCLINATION":70.0007,"RA_OF_ASC_NODE":43.8115,"ARG_OF_PERICENTER":267.8478,"MEAN_ANOMALY":92.2347,"EPHEMERIS_TYPE":0,"CLASSIFICATION_TYPE":"U","NORAD_CAT_ID":55281,"ELEMENT_SET_NO":999,"REV_AT_EPOCH":17281,"BSTAR":1.947604e-6,"MEAN_MOTION_DOT":-7.0e-7,"MEAN_MOTION_DDOT":0},{"OBJECT_NAME":"PEGASUS DEB","OBJECT_ID":"1994-029WD","EPOCH":"2026-03-09T21:43:57.366912","MEAN_MOTION":14.89136591,"ECCENTRICITY":0.01058593,"INCLINATION":81.9743,"RA_OF_ASC_NODE":221.1497,"ARG_OF_PERICENTER":252.4191,"MEAN_ANOMALY":235.9905,"EPHEMERIS_TYPE":0,"CLASSIFICATION_TYPE":"U","NORAD_CAT_ID":24529,"ELEMENT_SET_NO":999,"REV_AT_EPOCH":23750,"BSTAR":0.00030874262,"MEAN_MOTION_DOT":3.26e-5,"MEAN_MOTION_DDOT":0}]
